*******************************************************************************
Ephemeris / WWW_USER Fri Mar  7 09:59:38 2025 Pasadena, USA      / Horizons    
*******************************************************************************
Target body name: 358P/PANSTARRS                  {source: JPL#33}
Center body name: Earth (399)                     {source: DE441}
Center-site name: Mauna Kea
*******************************************************************************
Start time      : A.D. 2018-Sep-04 04:44:00.0000 UT      
Stop  time      : A.D. 2018-Sep-04 15:57:00.0000 UT      
Step-size       : 1 minutes
*******************************************************************************
Target pole/equ : undefined
Target radii    : undefined                                                    
Center geodetic : 204.5278, 19.8260847, 4.21024   {E-lon(deg),Lat(deg),Alt(km)}
Center cylindric: 204.5278, 6006.35451, 2151.0229 {E-lon(deg),Dxy(km),Dz(km)}
Center pole/equ : ITRF93                          {East-longitude positive}
Center radii    : 6378.137, 6378.137, 6356.752 km {Equator_a, b, pole_c}       
Target primary  : Sun
Vis. interferer : MOON (R_eq= 1737.400) km        {source: DE441}
Rel. light bend : Sun                             {source: DE441}
Rel. lght bnd GM: 1.3271E+11 km^3/s^2                                          
Small-body perts: Yes                             {source: SB441-N16}
Atmos refraction: NO (AIRLESS)
RA format       : HMS
Time format     : CAL 
Calendar mode   : Mixed Julian/Gregorian
RTS-only print  : NO       
EOP file        : eop.250306.p250602                                           
EOP coverage    : DATA-BASED 1962-JAN-20 TO 2025-MAR-06. PREDICTS-> 2025-JUN-01
Units conversion: 1 au= 149597870.700 km, c= 299792.458 km/s, 1 day= 86400.0 s 
Table cut-offs 1: Elevation (-90.0deg=NO ),Airmass (>38.000=NO), Daylight (YES)
Table cut-offs 2: Solar elongation (  0.0,180.0=NO ),Local Hour Angle( 0.0=NO )
Table cut-offs 3: RA/DEC angular rate (     0.0=NO )                           
*******************************************************************************
Initial IAU76/J2000 heliocentric ecliptic osculating elements (au, days, deg.):
  EPOCH=  2459793.5 ! 2022-Aug-02.0000000 (TDB)    RMSW= n.a.                  
   EC= .2388922136090974   QR= 2.394903345037887   TP= 2460259.6862889272      
   OM= 85.70246509974154   W= 299.7728624007243    IN= 11.06025031481611       
  Equivalent ICRF heliocentric cartesian coordinates (au, au/d):
   X= 3.243054425204740E-01  Y=-2.897679241187805E+00  Z=-1.376383147061824E+00
  VX= 8.746409534656921E-03 VY= 3.598394346577952E-03 VZ=-2.469697424538527E-04
Comet physical (GM= km^3/s^2; RAD= km):                                        
   GM= n.a.                RAD= n.a.                                           
   M1=  7.8      M2=  17.2     k1=  30.    k2=  5.      PHCOF=  .030           
Comet non-gravitational force model (AMRAT=m^2/kg;A1-A3=au/d^2;DT=days;R0=au): 
   AMRAT=  0.                                      DT=  0.                     
   A1= 0.                  A2= -2.303385920823E-10 A3= 0.                      
 Standard model:                                                               
   ALN=  .1112620426   NK=  4.6142   NM=  2.15     NN=  5.093    R0=  2.808    
*******************************************************************************
 Date__(UT)__HR:MN     R.A._________(ICRF)_________DEC
******************************************************
$$SOE
 2018-Sep-04 12:32  m  05 59 19.550207 +20 06 16.28768
 2018-Sep-04 12:33  m  05 59 19.608016 +20 06 16.37094
 2018-Sep-04 12:34  m  05 59 19.665821 +20 06 16.45420
 2018-Sep-04 12:35  m  05 59 19.723621 +20 06 16.53744
 2018-Sep-04 12:36  m  05 59 19.781417 +20 06 16.62068
 2018-Sep-04 12:37  m  05 59 19.839209 +20 06 16.70391
 2018-Sep-04 12:38  m  05 59 19.896996 +20 06 16.78714
 2018-Sep-04 12:39  m  05 59 19.954779 +20 06 16.87036
 2018-Sep-04 12:40  m  05 59 20.012558 +20 06 16.95357
 2018-Sep-04 12:41  m  05 59 20.070332 +20 06 17.03677
 2018-Sep-04 12:42  m  05 59 20.128101 +20 06 17.11997
 2018-Sep-04 12:43  m  05 59 20.185867 +20 06 17.20316
 2018-Sep-04 12:44  m  05 59 20.243628 +20 06 17.28634
 2018-Sep-04 12:45  m  05 59 20.301384 +20 06 17.36951
 2018-Sep-04 12:46  m  05 59 20.359136 +20 06 17.45268
 2018-Sep-04 12:47  m  05 59 20.416884 +20 06 17.53583
 2018-Sep-04 12:48  m  05 59 20.474628 +20 06 17.61898
 2018-Sep-04 12:49  m  05 59 20.532367 +20 06 17.70212
 2018-Sep-04 12:50  m  05 59 20.590102 +20 06 17.78526
 2018-Sep-04 12:51  m  05 59 20.647832 +20 06 17.86838
 2018-Sep-04 12:52  m  05 59 20.705558 +20 06 17.95150
 2018-Sep-04 12:53  m  05 59 20.763280 +20 06 18.03461
 2018-Sep-04 12:54  m  05 59 20.820998 +20 06 18.11771
 2018-Sep-04 12:55  m  05 59 20.878711 +20 06 18.20080
 2018-Sep-04 12:56  m  05 59 20.936420 +20 06 18.28388
 2018-Sep-04 12:57  m  05 59 20.994124 +20 06 18.36695
 2018-Sep-04 12:58  m  05 59 21.051825 +20 06 18.45002
 2018-Sep-04 12:59  m  05 59 21.109521 +20 06 18.53307
 2018-Sep-04 13:00  m  05 59 21.167213 +20 06 18.61612
 2018-Sep-04 13:01  m  05 59 21.224900 +20 06 18.69916
 2018-Sep-04 13:02  m  05 59 21.282584 +20 06 18.78219
 2018-Sep-04 13:03  m  05 59 21.340263 +20 06 18.86521
 2018-Sep-04 13:04  m  05 59 21.397937 +20 06 18.94822
 2018-Sep-04 13:05  m  05 59 21.455608 +20 06 19.03122
 2018-Sep-04 13:06  m  05 59 21.513274 +20 06 19.11421
 2018-Sep-04 13:07  m  05 59 21.570937 +20 06 19.19719
 2018-Sep-04 13:08  m  05 59 21.628594 +20 06 19.28017
 2018-Sep-04 13:09  m  05 59 21.686248 +20 06 19.36313
 2018-Sep-04 13:10  m  05 59 21.743898 +20 06 19.44608
 2018-Sep-04 13:11  m  05 59 21.801543 +20 06 19.52902
 2018-Sep-04 13:12  m  05 59 21.859184 +20 06 19.61196
 2018-Sep-04 13:13  m  05 59 21.916821 +20 06 19.69488
 2018-Sep-04 13:14  m  05 59 21.974454 +20 06 19.77779
 2018-Sep-04 13:15  m  05 59 22.032083 +20 06 19.86070
 2018-Sep-04 13:16  m  05 59 22.089707 +20 06 19.94359
 2018-Sep-04 13:17  m  05 59 22.147328 +20 06 20.02647
 2018-Sep-04 13:18  m  05 59 22.204944 +20 06 20.10934
 2018-Sep-04 13:19  m  05 59 22.262556 +20 06 20.19220
 2018-Sep-04 13:20  m  05 59 22.320164 +20 06 20.27505
 2018-Sep-04 13:21  m  05 59 22.377768 +20 06 20.35789
 2018-Sep-04 13:22  m  05 59 22.435368 +20 06 20.44072
 2018-Sep-04 13:23  m  05 59 22.492964 +20 06 20.52354
 2018-Sep-04 13:24  m  05 59 22.550555 +20 06 20.60635
 2018-Sep-04 13:25  m  05 59 22.608143 +20 06 20.68915
 2018-Sep-04 13:26  m  05 59 22.665727 +20 06 20.77193
 2018-Sep-04 13:27  m  05 59 22.723306 +20 06 20.85471
 2018-Sep-04 13:28  m  05 59 22.780882 +20 06 20.93747
 2018-Sep-04 13:29  m  05 59 22.838453 +20 06 21.02022
 2018-Sep-04 13:30  m  05 59 22.896020 +20 06 21.10296
 2018-Sep-04 13:31  m  05 59 22.953584 +20 06 21.18569
 2018-Sep-04 13:32  m  05 59 23.011143 +20 06 21.26841
 2018-Sep-04 13:33  m  05 59 23.068699 +20 06 21.35111
 2018-Sep-04 13:34  m  05 59 23.126250 +20 06 21.43381
 2018-Sep-04 13:35  m  05 59 23.183798 +20 06 21.51649
 2018-Sep-04 13:36  m  05 59 23.241341 +20 06 21.59916
 2018-Sep-04 13:37  m  05 59 23.298881 +20 06 21.68182
 2018-Sep-04 13:38  m  05 59 23.356416 +20 06 21.76446
 2018-Sep-04 13:39  m  05 59 23.413948 +20 06 21.84710
 2018-Sep-04 13:40  m  05 59 23.471476 +20 06 21.92972
 2018-Sep-04 13:41  m  05 59 23.528999 +20 06 22.01233
 2018-Sep-04 13:42  m  05 59 23.586519 +20 06 22.09493
 2018-Sep-04 13:43  m  05 59 23.644035 +20 06 22.17751
 2018-Sep-04 13:44  m  05 59 23.701547 +20 06 22.26009
 2018-Sep-04 13:45  m  05 59 23.759056 +20 06 22.34265
 2018-Sep-04 13:46  m  05 59 23.816560 +20 06 22.42520
 2018-Sep-04 13:47  m  05 59 23.874061 +20 06 22.50773
 2018-Sep-04 13:48  m  05 59 23.931557 +20 06 22.59025
 2018-Sep-04 13:49  m  05 59 23.989050 +20 06 22.67276
 2018-Sep-04 13:50  m  05 59 24.046539 +20 06 22.75526
 2018-Sep-04 13:51  m  05 59 24.104024 +20 06 22.83774
 2018-Sep-04 13:52  m  05 59 24.161506 +20 06 22.92022
 2018-Sep-04 13:53  m  05 59 24.218983 +20 06 23.00267
 2018-Sep-04 13:54  m  05 59 24.276457 +20 06 23.08512
 2018-Sep-04 13:55  m  05 59 24.333927 +20 06 23.16755
 2018-Sep-04 13:56  m  05 59 24.391394 +20 06 23.24997
 2018-Sep-04 13:57  m  05 59 24.448856 +20 06 23.33237
 2018-Sep-04 13:58  m  05 59 24.506315 +20 06 23.41476
 2018-Sep-04 13:59  m  05 59 24.563770 +20 06 23.49714
 2018-Sep-04 14:00  m  05 59 24.621222 +20 06 23.57951
 2018-Sep-04 14:01  m  05 59 24.678670 +20 06 23.66186
 2018-Sep-04 14:02  m  05 59 24.736114 +20 06 23.74419
 2018-Sep-04 14:03  m  05 59 24.793554 +20 06 23.82652
 2018-Sep-04 14:04  m  05 59 24.850991 +20 06 23.90882
 2018-Sep-04 14:05  m  05 59 24.908424 +20 06 23.99112
 2018-Sep-04 14:06  m  05 59 24.965853 +20 06 24.07340
 2018-Sep-04 14:07  m  05 59 25.023279 +20 06 24.15567
 2018-Sep-04 14:08  m  05 59 25.080701 +20 06 24.23792
 2018-Sep-04 14:09  m  05 59 25.138120 +20 06 24.32016
 2018-Sep-04 14:10  m  05 59 25.195535 +20 06 24.40238
 2018-Sep-04 14:11  m  05 59 25.252946 +20 06 24.48459
 2018-Sep-04 14:12  m  05 59 25.310354 +20 06 24.56679
 2018-Sep-04 14:13  m  05 59 25.367758 +20 06 24.64897
 2018-Sep-04 14:14  m  05 59 25.425159 +20 06 24.73114
 2018-Sep-04 14:15  m  05 59 25.482556 +20 06 24.81329
 2018-Sep-04 14:16  m  05 59 25.539950 +20 06 24.89542
 2018-Sep-04 14:17  m  05 59 25.597340 +20 06 24.97755
 2018-Sep-04 14:18  m  05 59 25.654726 +20 06 25.05965
 2018-Sep-04 14:19  m  05 59 25.712109 +20 06 25.14175
 2018-Sep-04 14:20  m  05 59 25.769489 +20 06 25.22382
 2018-Sep-04 14:21  m  05 59 25.826865 +20 06 25.30589
 2018-Sep-04 14:22  m  05 59 25.884238 +20 06 25.38793
 2018-Sep-04 14:23  m  05 59 25.941607 +20 06 25.46997
 2018-Sep-04 14:24  m  05 59 25.998973 +20 06 25.55198
 2018-Sep-04 14:25  m  05 59 26.056336 +20 06 25.63398
 2018-Sep-04 14:26  m  05 59 26.113695 +20 06 25.71597
 2018-Sep-04 14:27  m  05 59 26.171051 +20 06 25.79794
 2018-Sep-04 14:28  m  05 59 26.228403 +20 06 25.87990
